OBJECT_NAME,OBJECT_ID,EPOCH,MEAN_MOTION,ECCENTRICITY,INCLINATION,RA_OF_ASC_NODE,ARG_OF_PERICENTER,MEAN_ANOMALY,EPHEMERIS_TYPE,CLASSIFICATION_TYPE,NORAD_CAT_ID,ELEMENT_SET_NO,REV_AT_EPOCH,BSTAR,MEAN_MOTION_DOT,MEAN_MOTION_DDOT
STARLINK-34413,2025-137Y,2026-07-16T17:21:50.273856,15.34391204,.0001142,53.1595,94.9577,77.7861,282.3269,0,U,64616,999,6060,.47987E-3,.15867E-3,0
STARLINK-34417,2025-137Z,2026-07-16T01:55:08.978592,15.34400224,.00011389,53.1590,84.3390,74.9508,285.1621,0,U,64617,999,6069,.26849933E-3,.8706E-4,0
STARLINK-34415,2025-137AA,2026-07-16T03:29:49.267104,15.34393325,.00011607,53.1589,97.7533,84.3175,275.7960,0,U,64618,999,6041,.11009874E-2,.36998E-3,0
STARLINK-34416,2025-137AB,2026-07-16T17:52:07.974336,15.34394158,.0001482,53.1589,95.0874,103.8180,256.2987,0,U,64619,999,6050,.49405E-3,.16349E-3,0
STARLINK-34414,2025-137AC,2026-07-16T17:49:06.262176,15.34402323,.0001297,53.1591,95.0732,93.9088,266.2063,0,U,64620,999,6050,.66477E-3,.22152E-3,0
HAWK-12C,2025-138A,2026-07-16T13:37:24.178944,15.18411900,.0015187,97.4351,199.5167,47.0277,313.2227,0,U,64621,999,5832,.10786E-3,.2157E-4,0
HAWK-12B,2025-138B,2026-07-16T13:37:39.226368,15.18411355,.0014033,97.4473,200.2124,43.2681,316.9653,0,U,64622,999,5832,.10861E-3,.2171E-4,0
HAWK-12A,2025-138C,2026-07-16T13:37:05.964096,15.18408348,.0015002,97.4414,199.8629,42.2297,318.0090,0,U,64623,999,5832,.1E-3,.1994E-4,0
KESTREL-0A,2025-138D,2026-07-16T12:42:22.218048,15.23687090,.001363,97.4415,201.4379,31.1303,329.0739,0,U,64624,999,5841,.2123E-3,.5035E-4,0
STARLINK-34464,2025-139A,2026-07-16T09:46:35.020128,15.34401033,.0001407,53.1574,246.8770,90.7210,269.3954,0,U,64664,999,6002,.28089E-3,.9126E-4,0
STARLINK-34555,2025-139B,2026-07-16T14:24:56.416608,15.34406374,.0001119,53.1572,245.9497,64.0212,296.0906,0,U,64665,999,5995,.24159E-3,.7796E-4,0
STARLINK-34390,2025-139C,2026-07-16T12:02:40.301376,15.34402121,.0001077,53.1554,246.0454,81.0404,279.0721,0,U,64666,999,6010,.26867E-3,.8713E-4,0
STARLINK-34382,2025-139D,2026-07-16T13:22:08.787360,15.34401867,.000085,53.1568,247.8051,75.1062,285.0035,0,U,64667,999,6002,.30383E-3,.9904E-4,0
STARLINK-34395,2025-139E,2026-07-16T13:03:15.820704,15.34404206,.0000782,53.1568,246.3063,79.4718,280.6372,0,U,64668,999,6004,.32004E-3,.10454E-3,0
STARLINK-34394,2025-139F,2026-07-16T12:45:05.554656,15.34379370,.0000929,53.1570,246.2304,63.0894,297.0203,0,U,64669,999,6004,.16743E-3,.5281E-4,0
STARLINK-34287,2025-139G,2026-07-16T11:02:11.946336,15.34401649,.0000953,53.1570,246.4924,76.7247,283.3862,0,U,64670,999,6003,.29224E-3,.9511E-4,0
STARLINK-34365,2025-139H,2026-07-16T10:01:43.758912,15.34405168,.000082,53.1566,246.9389,89.8334,270.2763,0,U,64671,999,6008,.30767E-3,.10035E-3,0
STARLINK-34442,2025-139J,2026-07-16T12:17:49.085952,15.34400334,.0001251,53.1571,246.1094,83.7638,276.3507,0,U,64672,999,6004,.46266E-3,.15288E-3,0
STARLINK-34288,2025-139K,2026-07-16T12:26:54.258720,15.34402534,.0000825,53.1571,246.1491,78.9331,281.1765,0,U,64673,999,6004,.2759E-3,.8957E-4,0
STARLINK-34539,2025-139L,2026-07-16T13:45:33.239232,15.34412044,.0001477,53.1559,245.7815,60.0814,300.0335,0,U,64674,999,5995,.3816E-3,.12543E-3,0
STARLINK-34590,2025-139M,2026-07-16T09:56:21.666624,15.34423093,.0001169,53.1577,248.3329,133.1815,226.9285,0,U,64675,999,6000,.54447E-3,.18077E-3,0
STARLINK-34573,2025-139N,2026-07-16T08:52:02.820576,15.34397686,.0001193,53.1566,246.6373,97.5276,262.5862,0,U,64676,999,6002,.16869E-3,.5327E-4,0
STARLINK-34605,2025-139P,2026-07-16T10:29:02.131008,15.30183696,.0001325,53.1568,238.5395,62.6896,297.4240,0,U,64677,999,6014,.24722E-3,.6966E-4,0
STARLINK-34525,2025-139Q,2026-07-16T08:31:40.119744,15.34387987,.0001079,53.1571,248.6744,136.5696,223.5392,0,U,64678,999,5999,.92367E-3,.30948E-3,0
STARLINK-34489,2025-139R,2026-07-16T13:06:17.768736,15.34397939,.0000828,53.1566,246.3143,85.5359,274.5738,0,U,64679,999,6004,.36097E-3,.11838E-3,0
STARLINK-34502,2025-139S,2026-07-16T13:39:29.534112,15.34394958,.0001183,53.1558,245.7479,72.8263,287.2869,0,U,64680,999,6005,.11541E-3,.3524E-4,0
STARLINK-34553,2025-139T,2026-07-16T11:56:36.451968,15.34378030,.000118,53.1556,246.0122,96.5532,263.5604,0,U,64681,999,6004,.30723E-3,.10011E-3,0
STARLINK-34551,2025-139U,2026-07-16T18:23:40.302816,15.30597627,.0001236,53.1574,237.0302,33.0689,327.0389,0,U,64682,999,6019,.6503E-2,.199945E-2,0
STARLINK-34550,2025-139V,2026-07-16T12:32:57.912864,15.34402658,.0001146,53.1573,246.1709,69.1531,290.9595,0,U,64683,999,6004,.25668E-3,.8306E-4,0
STARLINK-34485,2025-139W,2026-07-16T12:57:12.372192,15.34400309,.0000794,53.1565,246.2740,72.2979,287.8111,0,U,64684,999,6004,.39535E-3,.13005E-3,0
