STARLINK-34413          
1 64616U 25137Y   26197.72349854  .00015867  00000+0  47987-3 0  9992
2 64616  53.1595  94.9577 0001142  77.7861 282.3269 15.34391204 60604
STARLINK-34417          
1 64617U 25137Z   26197.07996503  .00008706  00000+0  26850-3 0  9990
2 64617  53.1590  84.3390 0001138  74.9508 285.1621 15.34400224 60693
STARLINK-34415          
1 64618U 25137AA  26197.14570911  .00036998  00000+0  11010-2 0  9995
2 64618  53.1589  97.7533 0001160  84.3175 275.7960 15.34393325 60413
STARLINK-34416          
1 64619U 25137AB  26197.74453674  .00016349  00000+0  49405-3 0  9996
2 64619  53.1589  95.0874 0001482 103.8180 256.2987 15.34394158 60501
STARLINK-34414          
1 64620U 25137AC  26197.74243359  .00022152  00000+0  66477-3 0  9992
2 64620  53.1591  95.0732 0001297  93.9088 266.2063 15.34402323 60509
HAWK-12C                
1 64621U 25138A   26197.56764096  .00002157  00000+0  10786-3 0  9995
2 64621  97.4351 199.5167 0015187  47.0277 313.2227 15.18411900 58325
HAWK-12B                
1 64622U 25138B   26197.56781512  .00002171  00000+0  10861-3 0  9998
2 64622  97.4473 200.2124 0014033  43.2681 316.9653 15.18411355 58327
HAWK-12A                
1 64623U 25138C   26197.56743014  .00001994  00000+0  10000-3 0  9991
2 64623  97.4414 199.8629 0015002  42.2297 318.0090 15.18408348 58321
KESTREL-0A              
1 64624U 25138D   26197.52942382  .00005035  00000+0  21230-3 0  9994
2 64624  97.4415 201.4379 0013630  31.1303 329.0739 15.23687090 58416
STARLINK-34464          
1 64664U 25139A   26197.40734977  .00009126  00000+0  28089-3 0  9999
2 64664  53.1574 246.8770 0001407  90.7210 269.3954 15.34401033 60028
STARLINK-34555          
1 64665U 25139B   26197.60065297  .00007796  00000+0  24159-3 0  9999
2 64665  53.1572 245.9497 0001119  64.0212 296.0906 15.34406374 59956
STARLINK-34390          
1 64666U 25139C   26197.50185534  .00008713  00000+0  26867-3 0  9994
2 64666  53.1554 246.0454 0001077  81.0404 279.0721 15.34402121 60108
STARLINK-34382          
1 64667U 25139D   26197.55704615  .00009904  00000+0  30383-3 0  9998
2 64667  53.1568 247.8051 0000850  75.1062 285.0035 15.34401867 60020
STARLINK-34395          
1 64668U 25139E   26197.54393311  .00010454  00000+0  32004-3 0  9999
2 64668  53.1568 246.3063 0000782  79.4718 280.6372 15.34404206 60044
STARLINK-34394          
1 64669U 25139F   26197.53131429  .00005281  00000+0  16743-3 0  9993
2 64669  53.1570 246.2304 0000929  63.0894 297.0203 15.34379370 60040
STARLINK-34287          
1 64670U 25139G   26197.45986049  .00009511  00000+0  29224-3 0  9990
2 64670  53.1570 246.4924 0000953  76.7247 283.3862 15.34401649 60035
STARLINK-34365          
1 64671U 25139H   26197.41786758  .00010035  00000+0  30767-3 0  9999
2 64671  53.1566 246.9389 0000820  89.8334 270.2763 15.34405168 60086
STARLINK-34442          
1 64672U 25139J   26197.51237368  .00015288  00000+0  46266-3 0  9995
2 64672  53.1571 246.1094 0001251  83.7638 276.3507 15.34400334 60046
STARLINK-34288          
1 64673U 25139K   26197.51868355  .00008957  00000+0  27590-3 0  9996
2 64673  53.1571 246.1491 0000825  78.9331 281.1765 15.34402534 60044
STARLINK-34539          
1 64674U 25139L   26197.57330138  .00012543  00000+0  38160-3 0  9997
2 64674  53.1559 245.7815 0001477  60.0814 300.0335 15.34412044 59957
STARLINK-34590          
1 64675U 25139M   26197.41413966  .00018077  00000+0  54447-3 0  9996
2 64675  53.1577 248.3329 0001169 133.1815 226.9285 15.34423093 60002
STARLINK-34573          
1 64676U 25139N   26197.36947709  .00005327  00000+0  16869-3 0  9998
2 64676  53.1566 246.6373 0001193  97.5276 262.5862 15.34397686 60029
STARLINK-34605          
1 64677U 25139P   26197.43683022  .00006966  00000+0  24722-3 0  9999
2 64677  53.1568 238.5395 0001325  62.6896 297.4240 15.30183696 60144
STARLINK-34525          
1 64678U 25139Q   26197.35532546  .00030948  00000+0  92367-3 0  9992
2 64678  53.1571 248.6744 0001079 136.5696 223.5392 15.34387987 59996
STARLINK-34489          
1 64679U 25139R   26197.54603899  .00011838  00000+0  36097-3 0  9999
2 64679  53.1566 246.3143 0000828  85.5359 274.5738 15.34397939 60045
STARLINK-34502          
1 64680U 25139S   26197.56909183  .00003524  00000+0  11541-3 0  9998
2 64680  53.1558 245.7479 0001183  72.8263 287.2869 15.34394958 60056
STARLINK-34553          
1 64681U 25139T   26197.49764412  .00010011  00000+0  30723-3 0  9997
2 64681  53.1556 246.0122 0001180  96.5532 263.5604 15.34378030 60049
STARLINK-34551          
1 64682U 25139U   26197.76643869  .00199945  00000+0  65030-2 0  9992
2 64682  53.1574 237.0302 0001236  33.0689 327.0389 15.30597627 60194
STARLINK-34550          
1 64683U 25139V   26197.52289251  .00008306  00000+0  25668-3 0  9992
2 64683  53.1573 246.1709 0001146  69.1531 290.9595 15.34402658 60046
STARLINK-34485          
1 64684U 25139W   26197.53972653  .00013005  00000+0  39535-3 0  9999
2 64684  53.1565 246.2740 0000794  72.2979 287.8111 15.34400309 60043
